{"type":"FeatureCollection", "features": [
{"type":"Feature","geometry":{"type":"Polygon","coordinates":[[[-1.4896238054729736,53.55682129668726],[-1.491095523555146,53.555419618112374],[-1.4927661224592335,53.55444066799658],[-1.4948742591715345,53.55377320200854],[-1.497499486020815,53.55343946901452],[-1.5043012101303146,53.55370645540974],[-1.5075628556097238,53.55326147808438],[-1.507881064924788,53.55508588511836],[-1.5094721115001097,53.55744426494277],[-1.5099494254727062,53.55722177628009],[-1.5106653964316008,53.55913517877914],[-1.5103869632809195,53.559869391365986],[-1.5105062917740686,53.56015862662747],[-1.5111029342398141,53.56011412889493],[-1.5106256202672177,53.56020312436],[-1.5106653964316008,53.56060360395283],[-1.516035178623311,53.560314368691344],[-1.5168307019109717,53.559869391365986],[-1.516989806568504,53.55937991630809],[-1.5176660013630157,53.561404563138474],[-1.5173477920479512,53.562694997382025],[-1.5187001816369745,53.56327346790499],[-1.525303024924559,53.56136006540594],[-1.52832601341767,53.56514237267151],[-1.5303943739655879,53.564163422555715],[-1.5313887780751638,53.563940933893036],[-1.531508106568313,53.56420792028825],[-1.5323036298559738,53.56409667595691],[-1.5323036298559738,53.56385193842796],[-1.536917664924406,53.56329571677126],[-1.5362414701298945,53.56262825078322],[-1.5377927405408331,53.56218327345786],[-1.54089528136271,53.56307322810858],[-1.5410146098558593,53.56158255406862],[-1.5423272232804994,53.561093079010725],[-1.5444751361571836,53.56084834148178],[-1.54403759834897,53.56033661755761],[-1.554339624924177,53.5579782377332],[-1.5541407441022619,53.556576559158316],[-1.5555726860200512,53.555197129449695],[-1.5548964912255396,53.55513038285089],[-1.5552147005406038,53.5547076543918],[-1.5537032062940483,53.554284925932706],[-1.5519928312255777,53.553038989421694],[-1.550163127663958,53.55257176323007],[-1.550163127663958,53.55128132898652],[-1.5494869328694463,53.550324627737],[-1.5504813369790222,53.549256682156134],[-1.5496460375269785,53.54867821163316],[-1.5499642468420427,53.54772151038364],[-1.5484527525954874,53.547565768319764],[-1.5486516334174025,53.53986766059102],[-1.5504017846502562,53.53888871047523],[-1.5512370841023,53.5379320092257],[-1.5509188747872358,53.53639683745321],[-1.5494471567050634,53.53419419969267],[-1.5496460375269785,53.5329927609142],[-1.5505211131434053,53.532258548327356],[-1.550242679992724,53.531791322135724],[-1.5453502117736102,53.53072337655486],[-1.5446740169790987,53.53036739469457],[-1.5444751361571836,53.53054538562471],[-1.5434011797188414,53.53014490603189],[-1.5420885662942012,53.530100408299354],[-1.5411339383490081,53.53072337655486],[-1.5402986388969644,53.53054538562471],[-1.5359630369792132,53.53121285161276],[-1.5350481851984035,53.531012611816344],[-1.53461064739019,53.53132409594409],[-1.5338946764312953,53.53121285161276],[-1.5312694495820147,53.531702326670654],[-1.5288828797190324,53.53105710954888],[-1.5275702662943922,53.53150208687424],[-1.525422353417708,53.531702326670654],[-1.5249848156094947,53.53121285161276],[-1.5238313068423865,53.53127959821156],[-1.523194888212258,53.530968114083805],[-1.5230755597191088,53.53125734934529],[-1.5216436178013195,53.530968114083805],[-1.521206079993106,53.53123510047902],[-1.5195752572534014,53.531101607281414],[-1.5163931641027584,53.53185806873453],[-1.5146430128699047,53.53150208687424],[-1.5118586813630919,53.53241429039123],[-1.510864277253516,53.53208055739721],[-1.5096709923220248,53.53263677905391],[-1.5093130068425775,53.532347543792426],[-1.5085970358836829,53.532703525652714],[-1.5075628556097238,53.532481036990035],[-1.5073241986234256,53.53274802338525],[-1.5070457654727443,53.532481036990035],[-1.506608227664531,53.53281476998406],[-1.5061706898563174,53.532659027920175],[-1.5061706898563174,53.53292601431539],[-1.505733152048104,53.53283701885032],[-1.505613823554955,53.53232529492616],[-1.5050967334179755,53.532659027920175],[-1.5050967334179755,53.53223629946108],[-1.504539867116613,53.5325032858563],[-1.503505686842654,53.53203605966467],[-1.503505686842654,53.532481036990035],[-1.5031079251988235,53.532436539257496],[-1.5028294920481422,53.531880317600795],[-1.501317997801587,53.530968114083805],[-1.498454113966008,53.52992241736921],[-1.499607622733116,53.53168007780438],[-1.4992496372536688,53.53185806873453],[-1.4952322446509818,53.52883222292208],[-1.4945958260208534,53.52903246271849],[-1.4934423172537452,53.52852073879432],[-1.4896635816373565,53.52823150353284],[-1.4874758925962894,53.52751953981226],[-1.4866405931442457,53.527586286411065],[-1.4860439506785,53.527052313620636],[-1.4844131279387955,53.52743054434719],[-1.4834187238292196,53.52723030455078],[-1.4833789476648365,53.526674082894075],[-1.4822652150621114,53.526718580626614],[-1.4835380523223687,53.52607336350484],[-1.4815094679388336,53.52553939071441],[-1.4816287964319828,53.52482742699383],[-1.4826629767059418,53.52371498368043],[-1.4810321539662372,53.52344799728521],[-1.4821061104045792,53.52353699275028],[-1.4822652150621114,53.52106736859453],[-1.4845722325963275,53.51971018775218],[-1.4829414098566231,53.51962119228711],[-1.4822652150621114,53.51873123763639],[-1.4826232005415587,53.51833075804356],[-1.4816685725963659,53.51777453638686],[-1.481907229582664,53.517396305660306],[-1.4813901394456845,53.51764104318926],[-1.4803161830073426,53.51617261801557],[-1.4796399882128308,53.51595012935289],[-1.4773727468429976,53.51695132833495],[-1.4751055054731645,53.517529798857915],[-1.4750259531443983,53.51786353185194],[-1.4724007262951178,53.51603912481796],[-1.4716052030074571,53.51450395304546],[-1.467309377254089,53.51477093944068],[-1.4645648219116594,53.51541615656245],[-1.4631328799938699,53.51443720644666],[-1.4634113131445512,53.513791989324886],[-1.4614622810897822,53.511411360634206],[-1.4568482460213499,53.51290203467416],[-1.4555356325967095,53.513413758598325],[-1.4534672720487916,53.51494893037082],[-1.4515977923227887,53.51701807493375],[-1.449807864925552,53.5199771741474],[-1.447699728213251,53.52253579376822],[-1.4434039024598828,53.525428146383064],[-1.4413753180763478,53.52634034990005],[-1.4375568062955761,53.52723030455078],[-1.428925378624457,53.527119060219434],[-1.4255046284875155,53.52803126373642],[-1.4235953725971298,53.52709681135317],[-1.4192199945149955,53.52587312370843],[-1.4163163345150336,53.52593987030723],[-1.4160379013643525,53.52734154888212],[-1.4148446164328612,53.52720805568451],[-1.4110261046520896,53.530790123153665],[-1.4096737150630663,53.529877919636675],[-1.4068098312274875,53.531479838007975],[-1.4025935578028854,53.53185806873453],[-1.4003263164330522,53.533348742774486],[-1.3975022087618565,53.53232529492616],[-1.3963089238303654,53.535395638471144],[-1.3952349673920232,53.53557362940129],[-1.3952747435564063,53.536174348790524],[-1.3961895953372163,53.53670832158096],[-1.3973431041043245,53.53839923541733],[-1.4028322147891836,53.53879971501016],[-1.4049005753371016,53.539378185533124],[-1.4058949794466775,53.54146957896232],[-1.4068098312274875,53.541803311956336],[-1.4069291597206366,53.54229278701423],[-1.409395281912385,53.54316049279869],[-1.4081622208165108,53.545785859018316],[-1.409236177254853,53.54594160108219],[-1.409236177254853,53.54885620256331],[-1.410429462186344,53.55221578136978],[-1.4085997586247243,53.55286099849155],[-1.409236177254853,53.553194731485576],[-1.410310133693195,53.55493014305448],[-1.412458046569879,53.55493014305448],[-1.4119011802685164,53.55564210677505],[-1.415441258898607,53.555886844304005],[-1.4158390205424372,53.55544186697865],[-1.4174698432821418,53.555575360176256],[-1.4184642473917177,53.55530837378104],[-1.4192199945149955,53.55624282616429],[-1.4203337271177205,53.55595359090281],[-1.4211292504053814,53.55624282616429],[-1.4224418638300216,53.556109332966685],[-1.4244704482135566,53.55490789418821],[-1.4261808232820272,53.55452966346166],[-1.42805030300803,53.55493014305448],[-1.4298800065696498,53.5542181793339],[-1.4337382945148045,53.55357296221213],[-1.4356873265695733,53.55210453703844],[-1.438471658076386,53.551503817649206],[-1.4410968849256667,53.55152606651547],[-1.4482168183502304,53.55379545087481],[-1.449728312596786,53.554507414595385],[-1.4480974898570813,53.556064835234146],[-1.4506033882132128,53.556665554623386],[-1.4523137632816834,53.557800246803055],[-1.4535070482131747,53.55933541857555],[-1.454899213966581,53.56020312436],[-1.455058318624113,53.5606925994179],[-1.4546207808158997,53.56107083014446],[-1.4564107082131363,53.56202753139398],[-1.4570073506788819,53.563384712236335],[-1.4593541443774813,53.56514237267151],[-1.4597519060213116,53.56558734999687],[-1.4593143682130982,53.56583208752582],[-1.4600303391719929,53.56643280691505],[-1.4610247432815688,53.56634381144998],[-1.4616611619116975,53.56687778424041],[-1.4623771328705921,53.5666107978452],[-1.4671502725965568,53.56322897017245],[-1.4679060197198346,53.56327346790499],[-1.4697754994458374,53.562472508719345],[-1.470650575062264,53.56271724624829],[-1.4729178164320973,53.55989164023225],[-1.4743497583498868,53.55906843218033],[-1.47975931670598,53.55760000700664],[-1.4825038720484096,53.55897943671526],[-1.4857257413634357,53.55913517877914],[-1.487913430404503,53.558400966192295],[-1.4896238054729736,53.55682129668726]]]},"properties":{"AreaCouncil":"Central"}},
{"type":"Feature","geometry":{"type":"Polygon","coordinates":[[[-1.3765003939676124,53.55946891177316],[-1.3734376293101183,53.56062585281909],[-1.3728409868443727,53.56147130973728],[-1.3694600128718144,53.562606001916954],[-1.3686247134197707,53.563340214503796],[-1.367948518625259,53.561782793865035],[-1.3681473994471742,53.55998063569732],[-1.3654823964335105,53.557933740000664],[-1.362896945748613,53.556932541018604],[-1.3605103758856307,53.5542181793339],[-1.356771416433625,53.55210453703844],[-1.3556179076665171,53.5497684060803],[-1.3529529046528534,53.547654763784834],[-1.3510834249268506,53.54494040210013],[-1.3479808841049736,53.5432939859963],[-1.3466682706803335,53.54296025300228],[-1.3409007268447928,53.54563011695444],[-1.3373606482147025,53.54416169178075],[-1.3337012410914628,53.54133608576471],[-1.330757804927118,53.54035713564892],[-1.330638476433969,53.54189230742141],[-1.327575711776475,53.543538723525245],[-1.3280530257490715,53.545274135094154],[-1.3292065345161794,53.54658681820397],[-1.3341785550640592,53.54772151038364],[-1.3368037819133398,53.55036912546953],[-1.3360878109544452,53.55105884032384],[-1.3360082586256792,53.552416021166195],[-1.331791985201077,53.555330622647304],[-1.3309566857490331,53.55650981255951],[-1.3313942235572467,53.558578957122435],[-1.3303202671189047,53.55889044125019],[-1.3300816101326065,53.55942441404062],[-1.3307975810915011,53.559402165174355],[-1.3313942235572467,53.56218327345786],[-1.3318317613654602,53.56216102459159],[-1.3320704183517584,53.56280624171336],[-1.3325875084887377,53.563607200899014],[-1.3351331830092523,53.56527586586912],[-1.3372015435571702,53.567300512699504],[-1.3373606482147025,53.56810147188516],[-1.3383948284886613,53.568768937873195],[-1.3447987909543306,53.57640029900313],[-1.3456340904063744,53.576912022927296],[-1.3447590147899475,53.577779728711754],[-1.3449181194474797,53.57815795943831],[-1.3464296136940352,53.57953738914693],[-1.3474637939679943,53.57971538007707],[-1.3472251369816959,53.58231849743043],[-1.3476626747899094,53.583252949813684],[-1.3486173027351023,53.58331969641249],[-1.351401634241915,53.58107256091942],[-1.3538677564336634,53.58338644301129],[-1.354583727392558,53.586189800161065],[-1.3564134309541778,53.58914889937471],[-1.3546632797213243,53.59201900312329],[-1.3561747739678796,53.5953563330635],[-1.3599137334198852,53.59678026050465],[-1.3602319427349494,53.59860466753863],[-1.363811797529423,53.60169725994989],[-1.36599948657049,53.60285420099582],[-1.3684258325978553,53.60345492038506],[-1.3694202367074313,53.60416688410564],[-1.3759037515018666,53.60594679340708],[-1.3767788271182935,53.606480766197514],[-1.3789267399949776,53.60661425939512],[-1.381591743008641,53.60541282061665],[-1.3839385367072405,53.603788653379084],[-1.3927688452002749,53.6014080246884],[-1.3942405632824473,53.60062931436902],[-1.3956725052002368,53.600362327973805],[-1.39611004300845,53.599806106317104],[-1.400206987939903,53.59864916527117],[-1.4014400490357772,53.59940562672428],[-1.4018775868439908,53.600228834776196],[-1.405298336980932,53.60042907457261],[-1.4059745317754437,53.60107429169438],[-1.4068496073918706,53.601052042828115],[-1.407207592871318,53.60138577582214],[-1.4128160320493264,53.60129678035706],[-1.4151628257479256,53.603187933989844],[-1.4175891717752909,53.60325468058865],[-1.4189415613643142,53.603744155646545],[-1.418782456706782,53.60329917832119],[-1.4215667882135947,53.60321018285612],[-1.4232373871176824,53.6034994181176],[-1.42490798602177,53.604433870500856],[-1.4287264978025416,53.60503458989009],[-1.4294424687614364,53.60554631381426],[-1.4291640356107551,53.60661425939512],[-1.4319085909531848,53.60819392890015],[-1.4324256810901643,53.60814943116762],[-1.432027919446334,53.60846091529537],[-1.4329029950627608,53.608950390353264],[-1.4334598613641232,53.608549910760445],[-1.4338973991723367,53.608638906225515],[-1.434255384651784,53.608082684568814],[-1.4355679980764242,53.60806043570255],[-1.4366021783503833,53.606569761662584],[-1.4380341202681728,53.60674775259273],[-1.438431881912003,53.607170481051824],[-1.4392274051996639,53.60705923672048],[-1.4424094983503069,53.609773598405184],[-1.444756292048906,53.6105968064571],[-1.4467848764324411,53.612799444217636],[-1.4470633095831225,53.61228772029347],[-1.4476201758844849,53.61273269761883],[-1.4482565945146135,53.61153125884036],[-1.4560924988980721,53.60743746744704],[-1.4590757112268,53.60623602866857],[-1.4604678769802064,53.606124784337226],[-1.4638090747883816,53.60441162163459],[-1.4730371449252464,53.6007850564329],[-1.4740713251992055,53.6013412780896],[-1.4750259531443983,53.59996184838098],[-1.4785262556101058,53.59827093454461],[-1.4792820027333835,53.596891504835995],[-1.4812310347881523,53.59631303431302],[-1.4828220813634738,53.59513384440082],[-1.4838164854730498,53.5948001114068],[-1.4841346947881142,53.59419939201756],[-1.4886294013633976,53.59172976786181],[-1.4893453723222922,53.59057282681587],[-1.489106715335994,53.58812545152639],[-1.487197459445608,53.586924012747915],[-1.4858450698565848,53.58412065559814],[-1.4834982761579856,53.587925211729974],[-1.4822254388977283,53.588614926584285],[-1.4804752876648746,53.589015406177104],[-1.478685360267638,53.58894865957831],[-1.4770147613635503,53.58854817998548],[-1.4718836361581382,53.585188601179006],[-1.4685026621855801,53.58409840673187],[-1.4667525109527264,53.58423189992948],[-1.465439897528086,53.58543333870795],[-1.460189443829525,53.5872799946082],[-1.4582801879391392,53.58741348780581],[-1.454899213966581,53.58703525707925],[-1.4552571994460282,53.5866570263527],[-1.4543423476652184,53.585878316033316],[-1.4547003331446657,53.58434314426082],[-1.453904809857005,53.58409840673187],[-1.4538252575282389,53.583675678272776],[-1.4532286150624933,53.58387591806919],[-1.452751301089897,53.58356443394144],[-1.4544616761583675,53.58254098609311],[-1.4555356325967095,53.5812283029833],[-1.4537457051994729,53.580115859669895],[-1.4495692079392537,53.57833595036845],[-1.4505238358844468,53.577045516124905],[-1.4498874172543181,53.57341895092321],[-1.4535866005419407,53.57319646226053],[-1.4533479435556425,53.57221751214474],[-1.4553367517747944,53.57132755749402],[-1.4561322750624552,53.57212851667967],[-1.4581210832816072,53.57168353935431],[-1.4584392925966714,53.5721062678134],[-1.4593541443774813,53.57195052574953],[-1.4593541443774813,53.57139430409283],[-1.4607463101308875,53.57141655295909],[-1.4619793712267617,53.57268473833637],[-1.4630135515007208,53.5720395212146],[-1.4665138539664282,53.57108281996507],[-1.4623771328705921,53.5666107978452],[-1.4616611619116975,53.56687778424041],[-1.4610247432815688,53.56634381144998],[-1.4600303391719929,53.56643280691505],[-1.4593143682130982,53.56583208752582],[-1.4597519060213116,53.56558734999687],[-1.4593541443774813,53.56514237267151],[-1.4570073506788819,53.563384712236335],[-1.4564107082131363,53.56202753139398],[-1.4546207808158997,53.56107083014446],[-1.455058318624113,53.5606925994179],[-1.454899213966581,53.56020312436],[-1.4535070482131747,53.55933541857555],[-1.4523137632816834,53.557800246803055],[-1.4506033882132128,53.556665554623386],[-1.4480974898570813,53.556064835234146],[-1.449728312596786,53.554507414595385],[-1.4482168183502304,53.55379545087481],[-1.4410968849256667,53.55152606651547],[-1.438471658076386,53.551503817649206],[-1.4356873265695733,53.55210453703844],[-1.4337382945148045,53.55357296221213],[-1.4298800065696498,53.5542181793339],[-1.42805030300803,53.55493014305448],[-1.4261808232820272,53.55452966346166],[-1.4244704482135566,53.55490789418821],[-1.4224418638300216,53.556109332966685],[-1.4211292504053814,53.55624282616429],[-1.4203337271177205,53.55595359090281],[-1.4192199945149955,53.55624282616429],[-1.4184642473917177,53.55530837378104],[-1.4174698432821418,53.555575360176256],[-1.4158390205424372,53.55544186697865],[-1.415441258898607,53.555886844304005],[-1.4119011802685164,53.55564210677505],[-1.4105487906794931,53.55573110224013],[-1.4089975202685547,53.556710052355925],[-1.4087986394466394,53.5574220160765],[-1.4076451306795312,53.55784474453559],[-1.4078042353370634,53.559179676511675],[-1.4069689358850197,53.5595801561045],[-1.406412069583657,53.559313169709284],[-1.4058154271179115,53.55960240497077],[-1.4050994561590169,53.55946891177316],[-1.3979397465700698,53.55811173093081],[-1.3955134005427046,53.556710052355925],[-1.3936836969810849,53.55746651380903],[-1.3920528742413802,53.55751101154157],[-1.3914562317756347,53.55808948206454],[-1.3901833945153774,53.558022735465734],[-1.3848136123236672,53.55886819238392],[-1.3830634610908135,53.558801445785114],[-1.3817508476661733,53.55831197072722],[-1.379364277803191,53.55590909317027],[-1.3767788271182935,53.5547744009906],[-1.3760230799950157,53.553973441804956],[-1.3750286758854398,53.555419618112374],[-1.3745911380772264,53.55731077174516],[-1.3760628561593988,53.55808948206454],[-1.3765003939676124,53.55946891177316]]]},"properties":{"AreaCouncil":"North East"}},
{"type":"Feature","geometry":{"type":"Polygon","coordinates":[[[-1.4068098312274875,53.531479838007975],[-1.3971839994467923,53.524983169057705],[-1.3902629468441434,53.52155684365243],[-1.3825463709538341,53.518998224031606],[-1.3689031465704518,53.51521591676604],[-1.3665165767074696,53.514837686039485],[-1.3599932857486512,53.51296878127297],[-1.35028790163919,53.51394773138876],[-1.3450374479406288,53.51394773138876],[-1.3436055060228393,53.51428146438278],[-1.341179159995474,53.51477093944068],[-1.3345763167078897,53.514370459847854],[-1.3303202671189047,53.51463744624307],[-1.3260244413655364,53.51234581301746],[-1.324552723283364,53.513102274470576],[-1.322524138899829,53.513102274470576],[-1.3206944353382093,53.51390323365622],[-1.3198989120505487,53.51383648705742],[-1.3184271939683763,53.51303552787177],[-1.3152848769821162,53.51283528807536],[-1.3125800978040694,53.51372524272608],[-1.3115061413657274,53.51372524272608],[-1.3113868128725783,53.51283528807536],[-1.3103526325986192,53.512768541476554],[-1.3076876295849558,53.513791989324886],[-1.303749789311035,53.51381423819115],[-1.2993744112289007,53.51512692130097],[-1.296550303557705,53.514971179237094],[-1.295357018626214,53.51528266336484],[-1.2937261958865092,53.5151714190335],[-1.2887939515030125,53.515749889556474],[-1.286327829311264,53.514548450778],[-1.2831855123250042,53.5156608940914],[-1.2827877506811736,53.51650635100958],[-1.2811967041058523,53.51655084874212],[-1.2785714772565715,53.519309708159355],[-1.2765428928730367,53.52057789353663],[-1.2792874482154664,53.5226247892333],[-1.286128948489349,53.52669633176034],[-1.2860096199961997,53.52691882042303],[-1.285293649037305,53.52783102394002],[-1.283105959996238,53.52723030455078],[-1.2814353610921505,53.52894346725341],[-1.275906474242908,53.52807576146896],[-1.275787145749759,53.52976667530533],[-1.2761849073935894,53.5303451458283],[-1.279884090681212,53.530879118618735],[-1.2797647621880628,53.53112385614768],[-1.2803216284894252,53.53141309140917],[-1.2813160325990012,53.5314575891417],[-1.2823899890373434,53.53063438108979],[-1.2837821547907495,53.53052313675845],[-1.2849754397222408,53.53141309140917],[-1.2845776780784104,53.532347543792426],[-1.285293649037305,53.53281476998406],[-1.2864471578044132,53.53292601431539],[-1.2877995473934365,53.53214730399601],[-1.2895496986262902,53.534038457628796],[-1.2938455243796585,53.535818366930236],[-1.2870040241057756,53.537687271696754],[-1.289350817804375,53.54069086864294],[-1.2877995473934365,53.54104685050323],[-1.2885155183523311,53.54373896332166],[-1.2936864197221263,53.54694280006426],[-1.2973856030097488,53.55130357785279],[-1.3016018764343509,53.5531724826193],[-1.3041873271192483,53.5547744009906],[-1.315125772324584,53.55615383069922],[-1.3174725660231832,53.557622255872914],[-1.32017734520123,53.55815622866334],[-1.3215695109546362,53.557933740000664],[-1.3226434673929783,53.557355269477696],[-1.3267006361600482,53.55808948206454],[-1.3267006361600482,53.558623454854974],[-1.327734816434007,53.559869391365986],[-1.3289281013654983,53.56080384374924],[-1.330757804927118,53.561560305202356],[-1.3320704183517584,53.56280624171336],[-1.3318317613654602,53.56216102459159],[-1.3313942235572467,53.56218327345786],[-1.3307975810915011,53.559402165174355],[-1.3300816101326065,53.55942441404062],[-1.3303202671189047,53.55889044125019],[-1.3313942235572467,53.558578957122435],[-1.3309566857490331,53.55650981255951],[-1.331791985201077,53.555330622647304],[-1.3360082586256792,53.552416021166195],[-1.3360878109544452,53.55105884032384],[-1.3368037819133398,53.55036912546953],[-1.3341785550640592,53.54772151038364],[-1.3292065345161794,53.54658681820397],[-1.3280530257490715,53.545274135094154],[-1.327575711776475,53.543538723525245],[-1.330638476433969,53.54189230742141],[-1.330757804927118,53.54035713564892],[-1.3337012410914628,53.54133608576471],[-1.3373606482147025,53.54416169178075],[-1.3409007268447928,53.54563011695444],[-1.3466682706803335,53.54296025300228],[-1.3479808841049736,53.5432939859963],[-1.3510834249268506,53.54494040210013],[-1.3529529046528534,53.547654763784834],[-1.3556179076665171,53.5497684060803],[-1.356771416433625,53.55210453703844],[-1.3605103758856307,53.5542181793339],[-1.362896945748613,53.556932541018604],[-1.3654823964335105,53.557933740000664],[-1.3681473994471742,53.55998063569732],[-1.367948518625259,53.561782793865035],[-1.3686247134197707,53.563340214503796],[-1.3694600128718144,53.562606001916954],[-1.3728409868443727,53.56147130973728],[-1.3734376293101183,53.56062585281909],[-1.3765003939676124,53.55946891177316],[-1.3760628561593988,53.55808948206454],[-1.3745911380772264,53.55731077174516],[-1.3750286758854398,53.555419618112374],[-1.3760230799950157,53.553973441804956],[-1.3767788271182935,53.5547744009906],[-1.379364277803191,53.55590909317027],[-1.3817508476661733,53.55831197072722],[-1.3830634610908135,53.558801445785114],[-1.3848136123236672,53.55886819238392],[-1.3901833945153774,53.558022735465734],[-1.3914562317756347,53.55808948206454],[-1.3920528742413802,53.55751101154157],[-1.3936836969810849,53.55746651380903],[-1.3955134005427046,53.556710052355925],[-1.3979397465700698,53.55811173093081],[-1.4050994561590169,53.55946891177316],[-1.4058154271179115,53.55960240497077],[-1.406412069583657,53.559313169709284],[-1.4069689358850197,53.5595801561045],[-1.4078042353370634,53.559179676511675],[-1.4076451306795312,53.55784474453559],[-1.4087986394466394,53.5574220160765],[-1.4089975202685547,53.556710052355925],[-1.4105487906794931,53.55573110224013],[-1.4119011802685164,53.55564210677505],[-1.412458046569879,53.55493014305448],[-1.410310133693195,53.55493014305448],[-1.409236177254853,53.553194731485576],[-1.4085997586247243,53.55286099849155],[-1.410429462186344,53.55221578136978],[-1.409236177254853,53.54885620256331],[-1.409236177254853,53.54594160108219],[-1.4081622208165108,53.545785859018316],[-1.409395281912385,53.54316049279869],[-1.4069291597206366,53.54229278701423],[-1.4068098312274875,53.541803311956336],[-1.4058949794466775,53.54146957896232],[-1.4049005753371016,53.539378185533124],[-1.4028322147891836,53.53879971501016],[-1.3973431041043245,53.53839923541733],[-1.3961895953372163,53.53670832158096],[-1.3952747435564063,53.536174348790524],[-1.3952349673920232,53.53557362940129],[-1.3963089238303654,53.535395638471144],[-1.3975022087618565,53.53232529492616],[-1.4003263164330522,53.533348742774486],[-1.4025935578028854,53.53185806873453],[-1.4068098312274875,53.531479838007975]]]},"properties":{"AreaCouncil":"Dearne"}},
{"type":"Feature","geometry":{"type":"Polygon","coordinates":[[[-1.4838164854730498,53.5948001114068],[-1.4842540232812633,53.59493360460441],[-1.4851290988976902,53.5969582514348],[-1.4893851484866754,53.59617954111541],[-1.4919705991715728,53.59680250937092],[-1.4928854509523826,53.59873816073624],[-1.4915330613633593,53.60272070779822],[-1.4950731399934498,53.603187933989844],[-1.4965448580756222,53.59735873102762],[-1.501477102459119,53.59987285291591],[-1.5072048701302765,53.59769246402164],[-1.5080401695823202,53.59827093454461],[-1.5103869632809195,53.59746997535896],[-1.509790320815174,53.596980500301065],[-1.5103869632809195,53.596847007103456],[-1.510864277253516,53.59718074009748],[-1.512892861637051,53.5969582514348],[-1.5158760739657788,53.597937201550586],[-1.5163136117739922,53.59769246402164],[-1.5187001816369745,53.59969486198576],[-1.5243881731437492,53.59769246402164],[-1.528365789582053,53.5969582514348],[-1.5298375076642254,53.59404364995368],[-1.5310705687600996,53.59379891242474],[-1.5302352693080556,53.59333168623311],[-1.5307921356094183,53.59313144643669],[-1.5321445251984416,53.5937544146922],[-1.5353663945134677,53.59384341015727],[-1.5363210224586605,53.593687668093395],[-1.5362414701298945,53.59453312501158],[-1.5369574410887892,53.594822360273064],[-1.536639231773725,53.59526733759842],[-1.537912069033982,53.59522283986589],[-1.5392246824586224,53.5964687763769],[-1.539741772595602,53.59653552297571],[-1.539861101088751,53.59746997535896],[-1.5410543860202421,53.59769246402164],[-1.541849909307903,53.59827093454461],[-1.5414919238284557,53.59873816073624],[-1.5424465517736485,53.598448925474756],[-1.543043194239394,53.59931663125921],[-1.5447137931434818,53.59947237332308],[-1.5463843920475693,53.601185536025724],[-1.5467026013626337,53.60234247707166],[-1.5476174531434435,53.6023869748042],[-1.5473390199927621,53.603187933989844],[-1.548134543280423,53.60341042265252],[-1.549168723554382,53.60312118739104],[-1.5504813369790222,53.60430037730325],[-1.5572035087597558,53.605212580820236],[-1.5576012704035862,53.60590229567455],[-1.559550302458355,53.60661425939512],[-1.5607038112254632,53.60645851733125],[-1.561737991499422,53.6068367480578],[-1.5644029945130857,53.606124784337226],[-1.566670235882919,53.604878847826214],[-1.569931881362328,53.602186735007784],[-1.5713240471157344,53.59940562672428],[-1.572875317526673,53.598715911869974],[-1.5754209920471873,53.59829318341088],[-1.5756994251978687,53.594822360273064],[-1.574983454238974,53.594377382947705],[-1.573949273965015,53.59226374065224],[-1.5762165153348482,53.59157402579793],[-1.5767733816362106,53.59063957341468],[-1.5754209920471873,53.589482632368735],[-1.5742674832800791,53.58685726614911],[-1.5632892619103607,53.584498886324695],[-1.5619766484857203,53.58329744754622],[-1.559510526293972,53.582629981558185],[-1.5587150030063113,53.58209600876775],[-1.5566068662940102,53.57871418109501],[-1.5557317906775834,53.578202457170846],[-1.5568852994446916,53.57653379220074],[-1.5587150030063113,53.57508761589332],[-1.5567261947871593,53.57464263856796],[-1.5562886569789458,53.57502086929451],[-1.5567261947871593,53.575265606823464],[-1.5548964912255396,53.5759330728115],[-1.554260072595411,53.57551034435241],[-1.5535838778008992,53.57568833528256],[-1.553265668485835,53.575354602288535],[-1.5529872353351537,53.57575508188136],[-1.5523905928694082,53.57510986475959],[-1.5500835753351918,53.57462038970169],[-1.5484129764311043,53.57497637156198],[-1.5467423775270166,53.57464263856796],[-1.5468219298557828,53.574308905573936],[-1.545946854239356,53.57404191917872],[-1.5456684210886746,53.574442398771545],[-1.5446740169790987,53.57417541237633],[-1.5442364791708854,53.5736414395859],[-1.5434011797188414,53.57395292371365],[-1.5435205082119905,53.574264407841405],[-1.542963641910628,53.57393067484738],[-1.5423669994448823,53.57410866577752],[-1.5412134906777744,53.57377493278351],[-1.540736176705178,53.57399742144619],[-1.5405372958832626,53.57324095999307],[-1.5423272232804994,53.57281823153398],[-1.5434011797188414,53.571149566563875],[-1.5426454325955636,53.57052659830837],[-1.5431625227325432,53.570014874384206],[-1.5424863279380316,53.56885793333827],[-1.5433216273900754,53.568546449210515],[-1.5427647610887127,53.56830171168157],[-1.5440773745133531,53.567589747960994],[-1.543918269855821,53.56727826383324],[-1.5443558076640342,53.56738950816458],[-1.5447137931434818,53.56714477063563],[-1.5443955838284174,53.56683328650788],[-1.545151330951695,53.566299313717444],[-1.5443955838284174,53.565987829589695],[-1.544833121636631,53.56543160793299],[-1.5444751361571836,53.56545385679926],[-1.5444751361571836,53.565075626072705],[-1.5427647610887127,53.564474906683465],[-1.54089528136271,53.56307322810858],[-1.5377927405408331,53.56218327345786],[-1.5362414701298945,53.56262825078322],[-1.536917664924406,53.56329571677126],[-1.5323036298559738,53.56385193842796],[-1.5323036298559738,53.56409667595691],[-1.531508106568313,53.56420792028825],[-1.5313887780751638,53.563940933893036],[-1.5303943739655879,53.564163422555715],[-1.52832601341767,53.56514237267151],[-1.525303024924559,53.56136006540594],[-1.5187001816369745,53.56327346790499],[-1.5173477920479512,53.562694997382025],[-1.5176660013630157,53.561404563138474],[-1.516989806568504,53.55937991630809],[-1.5168307019109717,53.559869391365986],[-1.516035178623311,53.560314368691344],[-1.5106653964316008,53.56060360395283],[-1.5106256202672177,53.56020312436],[-1.5111029342398141,53.56011412889493],[-1.5105062917740686,53.56015862662747],[-1.5103869632809195,53.559869391365986],[-1.5106653964316008,53.55913517877914],[-1.5099494254727062,53.55722177628009],[-1.5094721115001097,53.55744426494277],[-1.507881064924788,53.55508588511836],[-1.5075628556097238,53.55326147808438],[-1.5043012101303146,53.55370645540974],[-1.497499486020815,53.55343946901452],[-1.4948742591715345,53.55377320200854],[-1.4927661224592335,53.55444066799658],[-1.491095523555146,53.555419618112374],[-1.4896238054729736,53.55682129668726],[-1.487913430404503,53.558400966192295],[-1.4857257413634357,53.55913517877914],[-1.4825038720484096,53.55897943671526],[-1.47975931670598,53.55760000700664],[-1.4743497583498868,53.55906843218033],[-1.4729178164320973,53.55989164023225],[-1.470650575062264,53.56271724624829],[-1.4697754994458374,53.562472508719345],[-1.4679060197198346,53.56327346790499],[-1.4671502725965568,53.56322897017245],[-1.4623771328705921,53.5666107978452],[-1.4665138539664282,53.57108281996507],[-1.4630135515007208,53.5720395212146],[-1.4619793712267617,53.57268473833637],[-1.4607463101308875,53.57141655295909],[-1.4593541443774813,53.57139430409283],[-1.4593541443774813,53.57195052574953],[-1.4584392925966714,53.5721062678134],[-1.4581210832816072,53.57168353935431],[-1.4561322750624552,53.57212851667967],[-1.4553367517747944,53.57132755749402],[-1.4533479435556425,53.57221751214474],[-1.4535866005419407,53.57319646226053],[-1.4498874172543181,53.57341895092321],[-1.4505238358844468,53.577045516124905],[-1.4495692079392537,53.57833595036845],[-1.4537457051994729,53.580115859669895],[-1.4555356325967095,53.5812283029833],[-1.4544616761583675,53.58254098609311],[-1.452751301089897,53.58356443394144],[-1.4532286150624933,53.58387591806919],[-1.4538252575282389,53.583675678272776],[-1.453904809857005,53.58409840673187],[-1.4547003331446657,53.58434314426082],[-1.4543423476652184,53.585878316033316],[-1.4552571994460282,53.5866570263527],[-1.454899213966581,53.58703525707925],[-1.4582801879391392,53.58741348780581],[-1.460189443829525,53.5872799946082],[-1.465439897528086,53.58543333870795],[-1.4667525109527264,53.58423189992948],[-1.4685026621855801,53.58409840673187],[-1.4718836361581382,53.585188601179006],[-1.4770147613635503,53.58854817998548],[-1.478685360267638,53.58894865957831],[-1.4804752876648746,53.589015406177104],[-1.4822254388977283,53.588614926584285],[-1.4834982761579856,53.587925211729974],[-1.4858450698565848,53.58412065559814],[-1.487197459445608,53.586924012747915],[-1.489106715335994,53.58812545152639],[-1.4893453723222922,53.59057282681587],[-1.4886294013633976,53.59172976786181],[-1.4841346947881142,53.59419939201756],[-1.4838164854730498,53.5948001114068]]]},"properties":{"AreaCouncil":"North"}},
{"type":"Feature","geometry":{"type":"Polygon","coordinates":[[[-1.389626528214015,53.50938671380381],[-1.3808757720497464,53.51388098478996],[-1.3792449493100418,53.51439270871412],[-1.3707328501320717,53.514704192841876],[-1.3693406843786653,53.514370459847854],[-1.3689031465704518,53.51521591676604],[-1.3825463709538341,53.518998224031606],[-1.3902629468441434,53.52155684365243],[-1.3971839994467923,53.524983169057705],[-1.4068098312274875,53.531479838007975],[-1.4096737150630663,53.529877919636675],[-1.4110261046520896,53.530790123153665],[-1.4148446164328612,53.52720805568451],[-1.4160379013643525,53.52734154888212],[-1.4163163345150336,53.52593987030723],[-1.4192199945149955,53.52587312370843],[-1.4235953725971298,53.52709681135317],[-1.4255046284875155,53.52803126373642],[-1.428925378624457,53.527119060219434],[-1.4375568062955761,53.52723030455078],[-1.4413753180763478,53.52634034990005],[-1.4434039024598828,53.525428146383064],[-1.447699728213251,53.52253579376822],[-1.449807864925552,53.5199771741474],[-1.4515977923227887,53.51701807493375],[-1.4534672720487916,53.51494893037082],[-1.4555356325967095,53.513413758598325],[-1.4568482460213499,53.51290203467416],[-1.4614622810897822,53.511411360634206],[-1.4634113131445512,53.513791989324886],[-1.4631328799938699,53.51443720644666],[-1.4645648219116594,53.51541615656245],[-1.467309377254089,53.51477093944068],[-1.4716052030074571,53.51450395304546],[-1.4724007262951178,53.51603912481796],[-1.4750259531443983,53.51786353185194],[-1.4751055054731645,53.517529798857915],[-1.4773727468429976,53.51695132833495],[-1.4796399882128308,53.51595012935289],[-1.4803161830073426,53.51617261801557],[-1.4813901394456845,53.51764104318926],[-1.481907229582664,53.517396305660306],[-1.4816685725963659,53.51777453638686],[-1.4826232005415587,53.51833075804356],[-1.4822652150621114,53.51873123763639],[-1.4829414098566231,53.51962119228711],[-1.4845722325963275,53.51971018775218],[-1.4863223838291812,53.51864224217132],[-1.4873167879387572,53.5173295590615],[-1.4889476106784618,53.51706257266628],[-1.4908170904044646,53.51261279941268],[-1.490220447938719,53.5096759490653],[-1.489066939171611,53.50809627956027],[-1.484969994240158,53.50446971435858],[-1.4812310347881523,53.50026467863392],[-1.474469086843036,53.4956146655839],[-1.4718836361581382,53.493389778957095],[-1.469576618623922,53.49025268881331],[-1.467388929582855,53.48520219617046],[-1.4657183306787673,53.48237659015442],[-1.455973170404923,53.47185287640964],[-1.4552174232816453,53.47176388094457],[-1.4567289175282008,53.47356603911228],[-1.451836449309087,53.47616915646564],[-1.4503249550625315,53.47763758163933],[-1.4507227167063619,53.4820428571604],[-1.4521546586241514,53.485024205240315],[-1.4436823356105641,53.488406032913055],[-1.4424094983503069,53.49016369334823],[-1.4409377802681345,53.49112039459776],[-1.4355679980764242,53.48845053064559],[-1.4328632188983776,53.487916557855165],[-1.427851422186115,53.485847413292234],[-1.426021718624495,53.48738258506473],[-1.4254250761587495,53.488695268174546],[-1.424032910405343,53.489696467156605],[-1.422720296980703,53.49025268881331],[-1.4220043260218083,53.489829960354214],[-1.4198961893095072,53.489829960354214],[-1.419737084651975,53.49120939006283],[-1.4190608898574633,53.49109814573149],[-1.4169129769807793,53.492210589044895],[-1.4150037210903934,53.492477575440105],[-1.4155605873917558,53.49327853462576],[-1.416714096158864,53.49356776988724],[-1.4162765583506507,53.49452447113677],[-1.411622747117835,53.49621538497314],[-1.4107078953370253,53.49688285096118],[-1.4095941627343003,53.49844027159994],[-1.4119409564328995,53.49924123078559],[-1.408520206295958,53.503268275580105],[-1.4075655783507652,53.50344626651025],[-1.4070882643781688,53.50400248816695],[-1.4054972178028473,53.50429172342844],[-1.4056165462959964,53.5048034473526],[-1.3964282523235145,53.50520392694543],[-1.396985118624877,53.505693402003324],[-1.389626528214015,53.50938671380381]]]},"properties":{"AreaCouncil":"South"}},
{"type":"Feature","geometry":{"type":"Polygon","coordinates":[[[-1.4845722325963275,53.51971018775218],[-1.4822652150621114,53.52106736859453],[-1.4821061104045792,53.52353699275028],[-1.4810321539662372,53.52344799728521],[-1.4826629767059418,53.52371498368043],[-1.4816287964319828,53.52482742699383],[-1.4815094679388336,53.52553939071441],[-1.4835380523223687,53.52607336350484],[-1.4822652150621114,53.526718580626614],[-1.4833789476648365,53.526674082894075],[-1.4834187238292196,53.52723030455078],[-1.4844131279387955,53.52743054434719],[-1.4860439506785,53.527052313620636],[-1.4866405931442457,53.527586286411065],[-1.4874758925962894,53.52751953981226],[-1.4896635816373565,53.52823150353284],[-1.4934423172537452,53.52852073879432],[-1.4945958260208534,53.52903246271849],[-1.4952322446509818,53.52883222292208],[-1.4992496372536688,53.53185806873453],[-1.499607622733116,53.53168007780438],[-1.498454113966008,53.52992241736921],[-1.501317997801587,53.530968114083805],[-1.5028294920481422,53.531880317600795],[-1.5031079251988235,53.532436539257496],[-1.503505686842654,53.532481036990035],[-1.503505686842654,53.53203605966467],[-1.504539867116613,53.5325032858563],[-1.5050967334179755,53.53223629946108],[-1.5050967334179755,53.532659027920175],[-1.505613823554955,53.53232529492616],[-1.505733152048104,53.53283701885032],[-1.5061706898563174,53.53292601431539],[-1.5061706898563174,53.532659027920175],[-1.506608227664531,53.53281476998406],[-1.5070457654727443,53.532481036990035],[-1.5073241986234256,53.53274802338525],[-1.5075628556097238,53.532481036990035],[-1.5085970358836829,53.532703525652714],[-1.5093130068425775,53.532347543792426],[-1.5096709923220248,53.53263677905391],[-1.510864277253516,53.53208055739721],[-1.5118586813630919,53.53241429039123],[-1.5146430128699047,53.53150208687424],[-1.5163931641027584,53.53185806873453],[-1.5195752572534014,53.531101607281414],[-1.521206079993106,53.53123510047902],[-1.5216436178013195,53.530968114083805],[-1.5230755597191088,53.53125734934529],[-1.523194888212258,53.530968114083805],[-1.5238313068423865,53.53127959821156],[-1.5249848156094947,53.53121285161276],[-1.525422353417708,53.531702326670654],[-1.5275702662943922,53.53150208687424],[-1.5288828797190324,53.53105710954888],[-1.5312694495820147,53.531702326670654],[-1.5338946764312953,53.53121285161276],[-1.53461064739019,53.53132409594409],[-1.5350481851984035,53.531012611816344],[-1.5359630369792132,53.53121285161276],[-1.5402986388969644,53.53054538562471],[-1.5411339383490081,53.53072337655486],[-1.5420885662942012,53.530100408299354],[-1.5434011797188414,53.53014490603189],[-1.5444751361571836,53.53054538562471],[-1.5446740169790987,53.53036739469457],[-1.5453502117736102,53.53072337655486],[-1.550242679992724,53.531791322135724],[-1.5505211131434053,53.532258548327356],[-1.5496460375269785,53.5329927609142],[-1.5494471567050634,53.53419419969267],[-1.5509188747872358,53.53639683745321],[-1.5512370841023,53.5379320092257],[-1.5504017846502562,53.53888871047523],[-1.5486516334174025,53.53986766059102],[-1.5484527525954874,53.547565768319764],[-1.5499642468420427,53.54772151038364],[-1.5496460375269785,53.54867821163316],[-1.5504813369790222,53.549256682156134],[-1.5494869328694463,53.550324627737],[-1.550163127663958,53.55128132898652],[-1.550163127663958,53.55257176323007],[-1.5519928312255777,53.553038989421694],[-1.5537032062940483,53.554284925932706],[-1.5552147005406038,53.5547076543918],[-1.5548964912255396,53.55513038285089],[-1.5555726860200512,53.555197129449695],[-1.5541407441022619,53.556576559158316],[-1.554339624924177,53.5579782377332],[-1.54403759834897,53.56033661755761],[-1.5444751361571836,53.56084834148178],[-1.5423272232804994,53.561093079010725],[-1.5410146098558593,53.56158255406862],[-1.54089528136271,53.56307322810858],[-1.5427647610887127,53.564474906683465],[-1.5444751361571836,53.565075626072705],[-1.5444751361571836,53.56545385679926],[-1.544833121636631,53.56543160793299],[-1.5443955838284174,53.565987829589695],[-1.545151330951695,53.566299313717444],[-1.5443955838284174,53.56683328650788],[-1.5447137931434818,53.56714477063563],[-1.5443558076640342,53.56738950816458],[-1.543918269855821,53.56727826383324],[-1.5440773745133531,53.567589747960994],[-1.5427647610887127,53.56830171168157],[-1.5433216273900754,53.568546449210515],[-1.5424863279380316,53.56885793333827],[-1.5431625227325432,53.570014874384206],[-1.5426454325955636,53.57052659830837],[-1.5434011797188414,53.571149566563875],[-1.5423272232804994,53.57281823153398],[-1.5405372958832626,53.57324095999307],[-1.540736176705178,53.57399742144619],[-1.5412134906777744,53.57377493278351],[-1.5423669994448823,53.57410866577752],[-1.542963641910628,53.57393067484738],[-1.5435205082119905,53.574264407841405],[-1.5434011797188414,53.57395292371365],[-1.5442364791708854,53.5736414395859],[-1.5446740169790987,53.57417541237633],[-1.5456684210886746,53.574442398771545],[-1.545946854239356,53.57404191917872],[-1.5468219298557828,53.574308905573936],[-1.5467423775270166,53.57464263856796],[-1.5484129764311043,53.57497637156198],[-1.5500835753351918,53.57462038970169],[-1.5523905928694082,53.57510986475959],[-1.5529872353351537,53.57575508188136],[-1.553265668485835,53.575354602288535],[-1.5535838778008992,53.57568833528256],[-1.554260072595411,53.57551034435241],[-1.5548964912255396,53.5759330728115],[-1.5567261947871593,53.575265606823464],[-1.5562886569789458,53.57502086929451],[-1.5567261947871593,53.57464263856796],[-1.5587150030063113,53.57508761589332],[-1.5568852994446916,53.57653379220074],[-1.5557317906775834,53.578202457170846],[-1.5566068662940102,53.57871418109501],[-1.5587150030063113,53.58209600876775],[-1.559510526293972,53.582629981558185],[-1.5619766484857203,53.58329744754622],[-1.5632892619103607,53.584498886324695],[-1.5742674832800791,53.58685726614911],[-1.5754209920471873,53.589482632368735],[-1.5767733816362106,53.59063957341468],[-1.5762165153348482,53.59157402579793],[-1.573949273965015,53.59226374065224],[-1.574983454238974,53.594377382947705],[-1.5756994251978687,53.594822360273064],[-1.5754209920471873,53.59829318341088],[-1.572875317526673,53.598715911869974],[-1.5713240471157344,53.59940562672428],[-1.569931881362328,53.602186735007784],[-1.566670235882919,53.604878847826214],[-1.5644029945130857,53.606124784337226],[-1.561737991499422,53.6068367480578],[-1.5607038112254632,53.60645851733125],[-1.559550302458355,53.60661425939512],[-1.5576012704035862,53.60590229567455],[-1.5587150030063113,53.60685899692407],[-1.5600276164309514,53.606725503726466],[-1.5598287356090363,53.60719272991809],[-1.560465154239165,53.60757096064465],[-1.5634483665678929,53.60765995610972],[-1.564641651499384,53.606947992389145],[-1.5661531457459394,53.60668100599393],[-1.57192068958148,53.608594408492976],[-1.577051814786892,53.60754871177838],[-1.5819045068416226,53.6057910513432],[-1.5835751057457101,53.60563530927933],[-1.5845297336909032,53.60588004680828],[-1.586438989581289,53.607170481051824],[-1.5881891408141426,53.60650301506378],[-1.5899392920469964,53.607081485586754],[-1.5910928008141045,53.606770001459],[-1.5878709314990784,53.603610662448936],[-1.587592498348397,53.60345492038506],[-1.5869560797182685,53.60376640451281],[-1.5858423471155434,53.60225348160659],[-1.5852059284854148,53.60020658590993],[-1.586438989581289,53.59998409724725],[-1.5865185419100551,53.5969582514348],[-1.5879902599922275,53.59350967716325],[-1.5890642164305695,53.59357642376205],[-1.5896210827319321,53.59388790788981],[-1.5910928008141045,53.59235273611731],[-1.5977354202660718,53.59023909382185],[-1.5980138534167532,53.5894381346362],[-1.5995651238276918,53.58928239257232],[-1.5993264668413936,53.58885966411323],[-1.6017130367043757,53.58774722079983],[-1.6005197517728846,53.58630104449241],[-1.6024687838276535,53.58496611251633],[-1.6023096791701212,53.58305271001728],[-1.600798184923566,53.5812283029833],[-1.5992071383482442,53.58069433019286],[-1.5980536295811363,53.57975987780961],[-1.5984513912249665,53.57922590501917],[-1.5995253476633087,53.57909241182156],[-1.6002413186222033,53.57737924911893],[-1.5964228068414317,53.57720125818878],[-1.5961841498551335,53.576956520659834],[-1.5983320627318176,53.576600538799546],[-1.6062475194440422,53.572884978132784],[-1.607202147389235,53.571527797290436],[-1.6096284934166003,53.57208401894713],[-1.6107422260193256,53.57010386984928],[-1.6122537202658809,53.568546449210515],[-1.6120946156083487,53.56770099229233],[-1.6130492435535417,53.56643280691505],[-1.6144414093069481,53.5650088794739],[-1.6164302175261,53.56449715554973],[-1.6157142465672052,53.56302873037605],[-1.6193736536904448,53.56311772584112],[-1.6222773136904065,53.56280624171336],[-1.6270504534163712,53.56358495203275],[-1.6279653051971812,53.56331796563753],[-1.6333748635532743,53.56316222357365],[-1.6336135205395725,53.562917486044704],[-1.6377502416354086,53.562316766655464],[-1.6467794309503583,53.562316766655464],[-1.6489273438270424,53.56198303366145],[-1.6496830909503202,53.56151580746982],[-1.6509161520461944,53.56160480293489],[-1.651711675333855,53.56073709715044],[-1.6565643673885857,53.56053685735402],[-1.6563257104022875,53.56035886642388],[-1.658036085470758,53.55975814703464],[-1.6574792191693957,53.559179676511675],[-1.6585133994433545,53.55886819238392],[-1.6593089227310154,53.55980264476718],[-1.6604624314981236,53.55924642311048],[-1.6608999693063369,53.5595801561045],[-1.6639627339638308,53.557488762675305],[-1.6617750449227637,53.5558200977052],[-1.6615761641008486,53.55466315665927],[-1.6622523588953602,53.55444066799658],[-1.661934149580296,53.55368420654347],[-1.6673834841007722,53.55339497128198],[-1.6686960975254124,53.553728704276004],[-1.6695313969774563,53.55321698035184],[-1.6706053534157983,53.55412918386883],[-1.6990453109496708,53.55379545087481],[-1.7041366599906997,53.560225373226274],[-1.7232292188945582,53.55993613796479],[-1.725297579442476,53.555330622647304],[-1.7264113120452012,53.554507414595385],[-1.7245020561548154,53.55221578136978],[-1.7274454923191602,53.55016888567312],[-1.7288774342369495,53.54814423884273],[-1.7295536290314613,53.54803299451139],[-1.729195643552014,53.547521270587225],[-1.73019004766159,53.54676480913411],[-1.7331334838259347,53.545096144164006],[-1.7401738649217324,53.542070298351554],[-1.741605806839522,53.54109134823576],[-1.7424808824559488,53.541069099369494],[-1.7558854498530327,53.536686072714694],[-1.765551057798111,53.53561812713382],[-1.771795915606248,53.53383821783238],[-1.7768077123185109,53.53550688280249],[-1.78543913998963,53.53477267021564],[-1.7885814569758902,53.53552913166875],[-1.791644221633384,53.53541788733742],[-1.7940307914963665,53.534349941756545],[-1.7970537799894775,53.53388271556492],[-1.79983811149629,53.534483434954154],[-1.8037361756058279,53.53635233972067],[-1.8042532657428074,53.536997556842444],[-1.8221923158795577,53.5210896174608],[-1.822590077523388,53.519999423013665],[-1.8208001501261513,53.51848650010744],[-1.8195273128658942,53.513413758598325],[-1.8136404405372044,53.51207882662224],[-1.8099412572495819,53.51187858682584],[-1.806878492592088,53.51207882662224],[-1.8007529632771,53.51136686290167],[-1.8103787950577952,53.506338619125096],[-1.8077535682085148,53.50609388159614],[-1.803935056427743,53.505048184881545],[-1.7990028120442463,53.504647705288725],[-1.7970935561538606,53.5036910040392],[-1.796735570674413,53.50302353805116],[-1.7962980328661997,53.503134782382496],[-1.7960593758799015,53.50131037534852],[-1.7957013904004542,53.50095439348823],[-1.7958604950579862,53.49946371944827],[-1.7950649717703255,53.49817328520472],[-1.7953434049210069,53.49670486003104],[-1.7950251956059424,53.495903900845384],[-1.7958604950579862,53.49525868372361],[-1.7958604950579862,53.49427973360782],[-1.7974913177976908,53.49387925401499],[-1.7979288556059043,53.49336753009083],[-1.799718783003141,53.49354552102098],[-1.8002756493045036,53.49334528122456],[-1.7998778876606731,53.492989299364275],[-1.8002756493045036,53.49278905956786],[-1.8002358731401205,53.488094548785305],[-1.801866695879825,53.48651487928028],[-1.8014689342359946,53.48097491157954],[-1.7919624309484485,53.4819761105616],[-1.790450936701893,53.48248783448576],[-1.78726884355125,53.48435673925228],[-1.7855186923183963,53.484757218845104],[-1.7836492125923935,53.48477946771137],[-1.7804273432773674,53.48435673925228],[-1.7737051714966339,53.48248783448576],[-1.7710799446473533,53.482421087886955],[-1.7659885956063244,53.48106390704461],[-1.7639600112227896,53.48139764003863],[-1.7628860547844474,53.48108615591087],[-1.7618916506748714,53.481241897974755],[-1.7605392610858481,53.48075242291686],[-1.7574764964283542,53.48104165817834],[-1.754135298620179,53.480641178585515],[-1.751112310127068,53.479906965998666],[-1.7489643972503839,53.47984021939987],[-1.7462993942367204,53.47897251361541],[-1.744787899990165,53.47897251361541],[-1.7433559580723756,53.4793284954757],[-1.7423217777984166,53.479039260214215],[-1.7416455830039048,53.47823830102857],[-1.739696550949136,53.47719260431397],[-1.73870214683956,53.477125857715166],[-1.736395129305344,53.4793284954757],[-1.7366337862916421,53.48075242291686],[-1.737707742729984,53.48157563096877],[-1.7362360246478117,53.48375601986304],[-1.7354405013601508,53.486626123611615],[-1.7336107977985311,53.48811679765157],[-1.7318208704012945,53.49103139913269],[-1.730388928483505,53.49136513212671],[-1.7228314572507277,53.49154312305685],[-1.7214392914973213,53.49196585151594],[-1.7215983961548535,53.49263331750399],[-1.7197686925932338,53.492477575440105],[-1.7195698117713185,53.49292255276547],[-1.7172627942371024,53.493946000613796],[-1.7160695093056113,53.494123991543944],[-1.7156717476617809,53.49548117238629],[-1.7137227156070118,53.49663811343223],[-1.7140409249220763,53.49790629880951],[-1.7124896545111377,53.49857376479755],[-1.712847639990585,53.49961946151215],[-1.7118930120453921,53.49981970130856],[-1.7110179364289653,53.500798651424354],[-1.7111770410864975,53.50117688215091],[-1.707477857798875,53.50133262421478],[-1.7061254682098517,53.50173310380761],[-1.7052901687578077,53.50115463328464],[-1.7044150931413808,53.50173310380761],[-1.7033013605386558,53.50184434813895],[-1.7029831512235916,53.50291229371982],[-1.7011136714975887,53.50311253351623],[-1.6984486684839253,53.50255631185953],[-1.6934368717716624,53.50017568316885],[-1.6906923164292327,53.499441470582006],[-1.6905332117717005,53.49981970130856],[-1.688981941360762,53.49964171037841],[-1.6888228367032299,53.49908548872171],[-1.6844474586210956,53.499441470582006],[-1.6840894731416483,53.498840751192766],[-1.6825779788950928,53.499508217180804],[-1.6821404410868794,53.49941922171573],[-1.6803107375252597,53.5004871672966],[-1.669252963826775,53.50062066049421],[-1.6595078035529305,53.49848476933248],[-1.6550926493064133,53.49677160662984],[-1.6480522682106156,53.49479145753198],[-1.6416880819093294,53.494079493811405],[-1.6338124013614879,53.49236633110877],[-1.6243058980739415,53.49223283791116],[-1.6222773136904065,53.492166091312356],[-1.6149982756083106,53.490608670673595],[-1.6144414093069481,53.49310054369561],[-1.6119355109508167,53.49332303235829],[-1.6096284934166003,53.492255086777426],[-1.609310284101536,53.491698865120725],[-1.6066452810878724,53.49287805503293],[-1.6023096791701212,53.49154312305685],[-1.6021505745125892,53.49187685605087],[-1.5928031758825751,53.490519675208525],[-1.589501754238783,53.48958522282526],[-1.5872345128689498,53.48820579311665],[-1.582342044649836,53.48758282486114],[-1.5763358438279973,53.48613664855372],[-1.5748243495814418,53.48598090648984],[-1.5691761342390502,53.4864258838152],[-1.5673066545130476,53.48629239061759],[-1.5659940410884072,53.48606990195491],[-1.5663520265678545,53.48564717349582],[-1.5652780701295126,53.48546918256568],[-1.5650791893075975,53.484890712042706],[-1.5640847851980215,53.48486846317644],[-1.5622153054720185,53.48428999265347],[-1.5608629158829954,53.48428999265347],[-1.5611015728692936,53.483934010793185],[-1.5593911978008228,53.4835780289329],[-1.5581183605405657,53.48268807428217],[-1.5572432849241389,53.48104165817834],[-1.557362613417288,53.48028519672523],[-1.5496460375269785,53.47848303855751],[-1.5465832728694844,53.474611735826876],[-1.5436796128695227,53.47263158672902],[-1.5445149123215665,53.472186609403664],[-1.548134543280423,53.471318903619206],[-1.5455093164311424,53.46991722504432],[-1.5443955838284174,53.46882703059719],[-1.5441967030065022,53.467759085016326],[-1.541849909307903,53.46433275961105],[-1.5394235632805375,53.4624861037108],[-1.5391053539654733,53.46168514452515],[-1.539900877253134,53.46155165132754],[-1.5401793104038153,53.46106217626964],[-1.5393042347873884,53.45776934406197],[-1.5405372958832626,53.45699063374259],[-1.5404179673901135,53.456100679091875],[-1.5513961887598322,53.45543321310383],[-1.5525496975269402,53.45345306400598],[-1.5525099213625573,53.45278559801793],[-1.5487311857461685,53.45118367964664],[-1.5473390199927621,53.44987099653682],[-1.5504017846502562,53.44757936331121],[-1.5512370841023,53.44655591546289],[-1.5511177556091509,53.44608868927126],[-1.5482936479379552,53.44490949935905],[-1.5458673019105897,53.44172791148272],[-1.5407759528695608,53.44097145002961],[-1.5373949788970025,53.440837956832],[-1.5350879613627864,53.43994800218128],[-1.5340140049244444,53.438635319071466],[-1.5329002723217193,53.438323834943716],[-1.5318660920477603,53.43827933721118],[-1.5318660920477603,53.43865756793773],[-1.5278486994450735,53.43852407474012],[-1.5264565336916671,53.43901354979802],[-1.525501905746474,53.440281735175304],[-1.5246666062944303,53.44048197497171],[-1.5238313068423865,53.441327431889896],[-1.523314216705407,53.44308509232507],[-1.5207685421848924,53.44450901976623],[-1.5205696613629773,53.44577720514351],[-1.5188195101301236,53.44764610991002],[-1.5184217484862934,53.44933702374639],[-1.5131315186233492,53.45145066604185],[-1.5148021175274369,53.453809045866265],[-1.518143315335612,53.457235371271544],[-1.5166715972534397,53.457925086125854],[-1.5173875682123343,53.45834781458495],[-1.515040774513735,53.459615999962224],[-1.5163533879383753,53.46059495007802],[-1.514921446020586,53.46179638885649],[-1.5148021175274369,53.463665293623],[-1.5116995767055599,53.4657566870522],[-1.5073639747878087,53.466602143970384],[-1.5076424079384898,53.46824856007422],[-1.5064491230069987,53.470139713707],[-1.494476497527704,53.4809971604458],[-1.495311796979748,53.48513544957166],[-1.4946753783496194,53.486314639483865],[-1.4924876893085521,53.486626123611615],[-1.489066939171611,53.4864258838152],[-1.4845722325963275,53.48477946771137],[-1.4796399882128308,53.480930413847],[-1.4779693893087433,53.48008495692881],[-1.4740713251992055,53.479128255679285],[-1.4668718394458755,53.478082558964694],[-1.465161464377405,53.4782827987611],[-1.463371536980168,53.47777107483694],[-1.4615418334185484,53.476213654198176],[-1.460229219993908,53.47572417914028],[-1.4564504843775194,53.471919623008446],[-1.455973170404923,53.47185287640964],[-1.4657183306787673,53.48237659015442],[-1.467388929582855,53.48520219617046],[-1.469576618623922,53.49025268881331],[-1.4718836361581382,53.493389778957095],[-1.474469086843036,53.4956146655839],[-1.4812310347881523,53.50026467863392],[-1.484969994240158,53.50446971435858],[-1.489066939171611,53.50809627956027],[-1.490220447938719,53.5096759490653],[-1.4908170904044646,53.51261279941268],[-1.4889476106784618,53.51706257266628],[-1.4873167879387572,53.5173295590615],[-1.4863223838291812,53.51864224217132],[-1.4845722325963275,53.51971018775218]]]},"properties":{"AreaCouncil":"Penistone"}}
]}